0 ARIANE 1 DEB
1 26533U 79104P   13281.44349181 -.00000015  00000-0  00000+0 0  7151
2 26533 015.9762 079.1644 5771553 357.8075 004.6802 03.66638850182590
0 ARIANE 1 DEB
1 26533U 79104P   13282.53816358 -.00000011  00000-0  00000+0 0  7164
2 26533 015.9780 078.5124 5771618 359.0403 009.5504 03.66638863182639
0 ARIANE 1 DEB
1 26533U 79104P   13287.44480977 -.00000026  00000-0  00000+0 0  7170
2 26533 015.9827 075.5775 5771549 004.5630 005.8730 03.66636789182812
0 ARIANE 1 DEB
1 26533U 79104P   13293.44504981 -.00000064  00000-0  00000+0 0  7182
2 26533 015.9888 071.9893 5771652 011.3210 005.5832 03.66634968183037
0 ARIANE 1 DEB
1 26533U 79104P   13294.54157832 -.00000058  00000-0  00000+0 0  7197
2 26533 015.9900 071.3348 5771663 012.5541 012.8865 03.66634573183076
